<?xml version="1.0" encoding="UTF-8"?>
<ndm xmlns:xsi="http://www.w3.org/2001/XMLSchema-instance" xsi:noNamespaceSchemaLocation="https://sanaregistry.org/r/ndmxml_unqualified/ndmxml-2.0.0-master-2.0.xsd">
<omm id="CCSDS_OMM_VERS" version="2.0">
<header><CREATION_DATE/><ORIGINATOR/></header><body><segment><metadata><OBJECT_NAME>IRIDIUM 7</OBJECT_NAME><OBJECT_ID>1997-020B</OBJECT_ID><CENTER_NAME>EARTH</CENTER_NAME><REF_FRAME>TEME</REF_FRAME><TIME_SYSTEM>UTC</TIME_SYSTEM><MEAN_ELEMENT_THEORY>SGP4</MEAN_ELEMENT_THEORY></metadata><data><meanElements><EPOCH>2024-08-25T10:56:30.817536</EPOCH><MEAN_MOTION>14.35374786</MEAN_MOTION><ECCENTRICITY>.0002299</ECCENTRICITY><INCLINATION>86.3954</INCLINATION><RA_OF_ASC_NODE>300.8253</RA_OF_ASC_NODE><ARG_OF_PERICENTER>87.3023</ARG_OF_PERICENTER><MEAN_ANOMALY>272.8436</MEAN_ANOMALY></meanElements><tleParameters><EPHEMERIS_TYPE>0</EPHEMERIS_TYPE><CLASSIFICATION_TYPE>U</CLASSIFICATION_TYPE><NORAD_CAT_ID>24793</NORAD_CAT_ID><ELEMENT_SET_NO>999</ELEMENT_SET_NO><REV_AT_EPOCH>42946</REV_AT_EPOCH><BSTAR>.26705E-3</BSTAR><MEAN_MOTION_DOT>.785E-5</MEAN_MOTION_DOT><MEAN_MOTION_DDOT>0</MEAN_MOTION_DDOT></tleParameters></data></segment></body></omm>
<omm id="CCSDS_OMM_VERS" version="2.0">
<header><CREATION_DATE/><ORIGINATOR/></header><body><segment><metadata><OBJECT_NAME>IRIDIUM 5</OBJECT_NAME><OBJECT_ID>1997-020D</OBJECT_ID><CENTER_NAME>EARTH</CENTER_NAME><REF_FRAME>TEME</REF_FRAME><TIME_SYSTEM>UTC</TIME_SYSTEM><MEAN_ELEMENT_THEORY>SGP4</MEAN_ELEMENT_THEORY></metadata><data><meanElements><EPOCH>2024-08-25T20:55:56.681184</EPOCH><MEAN_MOTION>14.88732495</MEAN_MOTION><ECCENTRICITY>.0122701</ECCENTRICITY><INCLINATION>86.3918</INCLINATION><RA_OF_ASC_NODE>219.2492</RA_OF_ASC_NODE><ARG_OF_PERICENTER>114.1690</ARG_OF_PERICENTER><MEAN_ANOMALY>247.2422</MEAN_ANOMALY></meanElements><tleParameters><EPHEMERIS_TYPE>0</EPHEMERIS_TYPE><CLASSIFICATION_TYPE>U</CLASSIFICATION_TYPE><NORAD_CAT_ID>24795</NORAD_CAT_ID><ELEMENT_SET_NO>999</ELEMENT_SET_NO><REV_AT_EPOCH>44146</REV_AT_EPOCH><BSTAR>.67574E-3</BSTAR><MEAN_MOTION_DOT>.7304E-4</MEAN_MOTION_DOT><MEAN_MOTION_DDOT>0</MEAN_MOTION_DDOT></tleParameters></data></segment></body></omm>
<omm id="CCSDS_OMM_VERS" version="2.0">
<header><CREATION_DATE/><ORIGINATOR/></header><body><segment><metadata><OBJECT_NAME>IRIDIUM 4</OBJECT_NAME><OBJECT_ID>1997-020E</OBJECT_ID><CENTER_NAME>EARTH</CENTER_NAME><REF_FRAME>TEME</REF_FRAME><TIME_SYSTEM>UTC</TIME_SYSTEM><MEAN_ELEMENT_THEORY>SGP4</MEAN_ELEMENT_THEORY></metadata><data><meanElements><EPOCH>2024-08-25T16:43:17.794272</EPOCH><MEAN_MOTION>14.36302197</MEAN_MOTION><ECCENTRICITY>.0002382</ECCENTRICITY><INCLINATION>86.3943</INCLINATION><RA_OF_ASC_NODE>297.7949</RA_OF_ASC_NODE><ARG_OF_PERICENTER>92.8729</ARG_OF_PERICENTER><MEAN_ANOMALY>267.2741</MEAN_ANOMALY></meanElements><tleParameters><EPHEMERIS_TYPE>0</EPHEMERIS_TYPE><CLASSIFICATION_TYPE>U</CLASSIFICATION_TYPE><NORAD_CAT_ID>24796</NORAD_CAT_ID><ELEMENT_SET_NO>999</ELEMENT_SET_NO><REV_AT_EPOCH>43007</REV_AT_EPOCH><BSTAR>.24648E-3</BSTAR><MEAN_MOTION_DOT>.74E-5</MEAN_MOTION_DOT><MEAN_MOTION_DDOT>0</MEAN_MOTION_DDOT></tleParameters></data></segment></body></omm>
<omm id="CCSDS_OMM_VERS" version="2.0">
<header><CREATION_DATE/><ORIGINATOR/></header><body><segment><metadata><OBJECT_NAME>IRIDIUM 914</OBJECT_NAME><OBJECT_ID>1997-030A</OBJECT_ID><CENTER_NAME>EARTH</CENTER_NAME><REF_FRAME>TEME</REF_FRAME><TIME_SYSTEM>UTC</TIME_SYSTEM><MEAN_ELEMENT_THEORY>SGP4</MEAN_ELEMENT_THEORY></metadata><data><meanElements><EPOCH>2024-08-25T17:58:47.317728</EPOCH><MEAN_MOTION>14.40188456</MEAN_MOTION><ECCENTRICITY>.0003899</ECCENTRICITY><INCLINATION>86.3941</INCLINATION><RA_OF_ASC_NODE>307.2574</RA_OF_ASC_NODE><ARG_OF_PERICENTER>103.2860</ARG_OF_PERICENTER><MEAN_ANOMALY>256.8774</MEAN_ANOMALY></meanElements><tleParameters><EPHEMERIS_TYPE>0</EPHEMERIS_TYPE><CLASSIFICATION_TYPE>U</CLASSIFICATION_TYPE><NORAD_CAT_ID>24836</NORAD_CAT_ID><ELEMENT_SET_NO>999</ELEMENT_SET_NO><REV_AT_EPOCH>42669</REV_AT_EPOCH><BSTAR>.289E-3</BSTAR><MEAN_MOTION_DOT>.933E-5</MEAN_MOTION_DOT><MEAN_MOTION_DDOT>0</MEAN_MOTION_DDOT></tleParameters></data></segment></body></omm>
<omm id="CCSDS_OMM_VERS" version="2.0">
<header><CREATION_DATE/><ORIGINATOR/></header><body><segment><metadata><OBJECT_NAME>IRIDIUM 16</OBJECT_NAME><OBJECT_ID>1997-030F</OBJECT_ID><CENTER_NAME>EARTH</CENTER_NAME><REF_FRAME>TEME</REF_FRAME><TIME_SYSTEM>UTC</TIME_SYSTEM><MEAN_ELEMENT_THEORY>SGP4</MEAN_ELEMENT_THEORY></metadata><data><meanElements><EPOCH>2024-08-25T13:10:10.666848</EPOCH><MEAN_MOTION>14.38080962</MEAN_MOTION><ECCENTRICITY>.000157</ECCENTRICITY><INCLINATION>86.4076</INCLINATION><RA_OF_ASC_NODE>329.4996</RA_OF_ASC_NODE><ARG_OF_PERICENTER>25.0105</ARG_OF_PERICENTER><MEAN_ANOMALY>335.1169</MEAN_ANOMALY></meanElements><tleParameters><EPHEMERIS_TYPE>0</EPHEMERIS_TYPE><CLASSIFICATION_TYPE>U</CLASSIFICATION_TYPE><NORAD_CAT_ID>24841</NORAD_CAT_ID><ELEMENT_SET_NO>999</ELEMENT_SET_NO><REV_AT_EPOCH>42450</REV_AT_EPOCH><BSTAR>.35865E-3</BSTAR><MEAN_MOTION_DOT>.1105E-4</MEAN_MOTION_DOT><MEAN_MOTION_DDOT>0</MEAN_MOTION_DDOT></tleParameters></data></segment></body></omm>
<omm id="CCSDS_OMM_VERS" version="2.0">
<header><CREATION_DATE/><ORIGINATOR/></header><body><segment><metadata><OBJECT_NAME>IRIDIUM 911</OBJECT_NAME><OBJECT_ID>1997-030G</OBJECT_ID><CENTER_NAME>EARTH</CENTER_NAME><REF_FRAME>TEME</REF_FRAME><TIME_SYSTEM>UTC</TIME_SYSTEM><MEAN_ELEMENT_THEORY>SGP4</MEAN_ELEMENT_THEORY></metadata><data><meanElements><EPOCH>2024-08-25T14:44:00.142656</EPOCH><MEAN_MOTION>14.46776416</MEAN_MOTION><ECCENTRICITY>.0014409</ECCENTRICITY><INCLINATION>86.4500</INCLINATION><RA_OF_ASC_NODE>328.5369</RA_OF_ASC_NODE><ARG_OF_PERICENTER>12.0530</ARG_OF_PERICENTER><MEAN_ANOMALY>348.1015</MEAN_ANOMALY></meanElements><tleParameters><EPHEMERIS_TYPE>0</EPHEMERIS_TYPE><CLASSIFICATION_TYPE>U</CLASSIFICATION_TYPE><NORAD_CAT_ID>24842</NORAD_CAT_ID><ELEMENT_SET_NO>999</ELEMENT_SET_NO><REV_AT_EPOCH>43233</REV_AT_EPOCH><BSTAR>.38441E-3</BSTAR><MEAN_MOTION_DOT>.1412E-4</MEAN_MOTION_DOT><MEAN_MOTION_DDOT>0</MEAN_MOTION_DDOT></tleParameters></data></segment></body></omm>
<omm id="CCSDS_OMM_VERS" version="2.0">
<header><CREATION_DATE/><ORIGINATOR/></header><body><segment><metadata><OBJECT_NAME>IRIDIUM 17</OBJECT_NAME><OBJECT_ID>1997-034B</OBJECT_ID><CENTER_NAME>EARTH</CENTER_NAME><REF_FRAME>TEME</REF_FRAME><TIME_SYSTEM>UTC</TIME_SYSTEM><MEAN_ELEMENT_THEORY>SGP4</MEAN_ELEMENT_THEORY></metadata><data><meanElements><EPOCH>2024-08-25T15:09:06.054048</EPOCH><MEAN_MOTION>14.37173098</MEAN_MOTION><ECCENTRICITY>.0000595</ECCENTRICITY><INCLINATION>86.4010</INCLINATION><RA_OF_ASC_NODE>359.0256</RA_OF_ASC_NODE><ARG_OF_PERICENTER>126.8245</ARG_OF_PERICENTER><MEAN_ANOMALY>233.3007</MEAN_ANOMALY></meanElements><tleParameters><EPHEMERIS_TYPE>0</EPHEMERIS_TYPE><CLASSIFICATION_TYPE>U</CLASSIFICATION_TYPE><NORAD_CAT_ID>24870</NORAD_CAT_ID><ELEMENT_SET_NO>999</ELEMENT_SET_NO><REV_AT_EPOCH>42112</REV_AT_EPOCH><BSTAR>.41455E-3</BSTAR><MEAN_MOTION_DOT>.1252E-4</MEAN_MOTION_DOT><MEAN_MOTION_DDOT>0</MEAN_MOTION_DDOT></tleParameters></data></segment></body></omm>
<omm id="CCSDS_OMM_VERS" version="2.0">
<header><CREATION_DATE/><ORIGINATOR/></header><body><segment><metadata><OBJECT_NAME>IRIDIUM 920</OBJECT_NAME><OBJECT_ID>1997-034C</OBJECT_ID><CENTER_NAME>EARTH</CENTER_NAME><REF_FRAME>TEME</REF_FRAME><TIME_SYSTEM>UTC</TIME_SYSTEM><MEAN_ELEMENT_THEORY>SGP4</MEAN_ELEMENT_THEORY></metadata><data><meanElements><EPOCH>2024-08-25T19:23:46.768416</EPOCH><MEAN_MOTION>14.40886703</MEAN_MOTION><ECCENTRICITY>.0010757</ECCENTRICITY><INCLINATION>86.4024</INCLINATION><RA_OF_ASC_NODE>338.8792</RA_OF_ASC_NODE><ARG_OF_PERICENTER>346.9339</ARG_OF_PERICENTER><MEAN_ANOMALY>13.1580</MEAN_ANOMALY></meanElements><tleParameters><EPHEMERIS_TYPE>0</EPHEMERIS_TYPE><CLASSIFICATION_TYPE>U</CLASSIFICATION_TYPE><NORAD_CAT_ID>24871</NORAD_CAT_ID><ELEMENT_SET_NO>999</ELEMENT_SET_NO><REV_AT_EPOCH>42429</REV_AT_EPOCH><BSTAR>.30172E-3</BSTAR><MEAN_MOTION_DOT>.987E-5</MEAN_MOTION_DOT><MEAN_MOTION_DDOT>0</MEAN_MOTION_DDOT></tleParameters></data></segment></body></omm>

</ndm>
